NORAD_CAT_ID,OBJECT_NAME,OBJECT_TYPE,EPOCH,MEAN_MOTION,ECCENTRICITY,INCLINATION,RA_OF_ASC_NODE,ARG_OF_PERICENTER,MEAN_ANOMALY,BSTAR,MEAN_MOTION_DOT,MEAN_MOTION_DDOT,TLE_LINE0,TLE_LINE1,TLE_LINE2,SEMIMAJOR_AXIS,PERIOD,APOGEE,PERIGEE,DECAYED
52851.0,STARLINK-3809,PAYLOAD,2022-12-30 01:50:21,15.08842993,0.0003638999999999,53.2166,216.7606,28.9904,331.1289,-5.593e-06,-3.78e-06,0.0,0 STARLINK-3809,1 52851U 22062X   22364.07663671 -.00000378  00000-0 -55930-5 0  9993,2 52851  53.2166 216.7606 0003639  28.9904 331.1289 15.08842993 29958,6917.871,95.437,542.254,537.219,0.0
52851.0,STARLINK-3809,PAYLOAD,2022-12-31 06:27:17,15.08850034,0.0003728,53.2159,211.4082,30.9216,329.1995,0.00028624,4.271e-05,0.0,0 STARLINK-3809,1 52851U 22062X   22365.26895281  .00004271  00000-0  28624-3 0  9991,2 52851  53.2159 211.4082 0003728  30.9216 329.1995 15.08850034 30620,6917.85,95.437,542.294,537.136,0.0
52851.0,STARLINK-3809,PAYLOAD,2022-12-31 20:45:45,15.08850068,0.0003911999999999,53.2158,208.7316,41.6179,318.5111,0.00016391,2.322e-05,0.0,0 STARLINK-3809,1 52851U 22062X   22365.86511139  .00002322  00000-0  16391-3 0  9997,2 52851  53.2158 208.7316 0003912  41.6179 318.5111 15.08850068 30225,6917.85,95.437,542.4209999999998,537.008,0.0
52851.0,STARLINK-3809,PAYLOAD,2023-01-01 06:18:04,15.08836408,0.0003771999999999,53.2159,206.9473,30.3412,329.7798,-0.00010002,-1.881e-05,0.0,0 STARLINK-3809,1 52851U 22062X   23001.26255661 -.00001881  00000-0 -10002-3 0  9998,2 52851  53.2159 206.9473 0003772  30.3412 329.7798 15.08836408 30776,6917.891,95.438,542.366,537.1469999999998,0.0
52851.0,STARLINK-3809,PAYLOAD,2023-01-01 14:15:00,15.08837567,0.0003665,53.2167,205.4609,32.1171,328.0044,-2.9809e-06,-3.36e-06,0.0,0 STARLINK-3809,1 52851U 22062X   23001.59376069 -.00000336  00000-0 -29809-5 0  9991,2 52851  53.2167 205.4609 0003665  32.1171 328.0044 15.08837567 30338,6917.888000000001,95.438,542.288,537.217,0.0
52851.0,STARLINK-3809,PAYLOAD,2023-01-01 20:36:33,15.08842389,0.0003677,53.2167,204.2714,31.9485,328.173,-5.1679e-05,-1.112e-05,0.0,0 STARLINK-3809,1 52851U 22062X   23001.85871874 -.00001112  00000-0 -51679-4 0  9996,2 52851  53.2167 204.2714 0003677  31.9485 328.1730 15.08842389 30375,6917.873000000001,95.437,542.2819999999998,537.194,0.0
52851.0,STARLINK-3809,PAYLOAD,2023-01-02 12:30:24,15.088558,0.0003683,53.2168,201.2972,29.2881,330.8317,-0.00017178,-3.023e-05,0.0,0 STARLINK-3809,1 52851U 22062X   23002.52111153 -.00003023  00000-0 -17178-3 0  9996,2 52851  53.2168 201.2972 0003683  29.2881 330.8317 15.08855800 30964,6917.831999999999,95.437,542.245,537.149,0.0
52851.0,STARLINK-3809,PAYLOAD,2023-01-02 17:16:33,15.08841677,0.0003766,53.2168,200.4047,32.2961,327.8261,6.0013e-05,6.66e-06,0.0,0 STARLINK-3809,1 52851U 22062X   23002.71983484  .00000666  00000-0  60013-4 0  9996,2 52851  53.2168 200.4047 0003766  32.2961 327.8261 15.08841677 30997,6917.875,95.437,542.346,537.135,0.0
52851.0,STARLINK-3809,PAYLOAD,2023-01-03 05:59:39,15.0883389,0.0003804,53.2167,198.0263,34.1481,325.9755,0.00010471,1.378e-05,0.0,0 STARLINK-3809,1 52851U 22062X   23003.24976127  .00001378  00000-0  10471-3 0  9994,2 52851  53.2167 198.0263 0003804  34.1481 325.9755 15.08833890 31074,6917.899,95.438,542.396,537.132,0.0
52851.0,STARLINK-3809,PAYLOAD,2023-01-03 12:21:12,15.08830539,0.0003813999999999,53.2165,196.8371,35.2718,324.8526,4.3007e-05,3.95e-06,0.0,0 STARLINK-3809,1 52851U 22062X   23003.51472626  .00000395  00000-0  43007-4 0  9999,2 52851  53.2165 196.8371 0003814  35.2718 324.8526 15.08830539 30625,6917.909000000002,95.438,542.413,537.136,0.0
52851.0,STARLINK-3809,PAYLOAD,2023-01-03 15:31:58,15.0882845,0.0003812,53.2164,196.2421,35.2913,324.8331,2.5044e-05,1.1e-06,0.0,0 STARLINK-3809,1 52851U 22062X   23003.64720887  .00000110  00000-0  25044-4 0  9994,2 52851  53.2164 196.2421 0003812  35.2913 324.8331 15.08828450 31139,6917.916,95.438,542.418,537.144,0.0
52851.0,STARLINK-3809,PAYLOAD,2023-01-04 12:11:59,15.08837187,0.0003868,53.2164,192.3764,37.2679,322.8581,2.761e-05,1.5e-06,0.0,0 STARLINK-3809,1 52851U 22062X   23004.50832716  .00000150  00000-0  27610-4 0  9990,2 52851  53.2164 192.3764 0003868  37.2679 322.8581 15.08837187 31264,6917.889,95.438,542.43,537.078,0.0
52851.0,STARLINK-3809,PAYLOAD,2023-01-04 18:33:31,15.08840406,0.000388,53.2164,191.1871,37.7407,322.3857,5.2018e-05,5.39e-06,0.0,0 STARLINK-3809,1 52851U 22062X   23004.77328461  .00000539  00000-0  52018-4 0  9997,2 52851  53.2164 191.1871 0003880  37.7407 322.3857 15.08840406 30817,6917.879,95.438,542.428,537.06,0.0
52851.0,STARLINK-3809,PAYLOAD,2023-01-05 12:02:46,15.08838669,0.0003751999999999,53.2172,187.9164,37.0019,323.1231,0.00016366,2.317e-05,0.0,0 STARLINK-3809,1 52851U 22062X   23005.50192194  .00002317  00000-0  16366-3 0  9992,2 52851  53.2172 187.9164 0003752  37.0019 323.1231 15.08838669 30929,6917.884,95.438,542.345,537.154,0.0
52851.0,STARLINK-3809,PAYLOAD,2023-01-05 18:24:18,15.08842746,0.0003795,53.2162,186.7268,38.399,321.7271,0.00016326,2.311e-05,0.0,0 STARLINK-3809,1 52851U 22062X   23005.76687972  .00002311  00000-0  16326-3 0  9993,2 52851  53.2162 186.7268 0003795  38.3990 321.7271 15.08842746 30962,6917.871999999999,95.437,542.362,537.112,0.0
52851.0,STARLINK-3809,PAYLOAD,2023-01-06 05:32:00,15.08843252,0.0003824,53.2162,184.6455,38.8482,321.2785,0.00011349,1.518e-05,0.0,0 STARLINK-3809,1 52851U 22062X   23006.23056057  .00001518  00000-0  11349-3 0  9998,2 52851  53.2162 184.6455 0003824  38.8482 321.2785 15.08843252 31522,6917.87,95.437,542.381,537.09,0.0
52851.0,STARLINK-3809,PAYLOAD,2023-01-06 13:28:56,15.08839829,0.0003829,53.2162,183.1582,39.8857,320.2416,6.8245e-05,7.97e-06,0.0,0 STARLINK-3809,1 52851U 22062X   23006.56176305  .00000797  00000-0  68245-4 0  9999,2 52851  53.2162 183.1582 0003829  39.8857 320.2416 15.08839829 31085,6917.880999999999,95.438,542.395,537.097,0.0
52851.0,STARLINK-3809,PAYLOAD,2023-01-07 21:16:39,15.08840788,0.0003917,53.2165,177.2109,42.4367,317.6927,-4.0514e-05,-9.34e-06,0.0,0 STARLINK-3809,1 52851U 22062X   23007.88656450 -.00000934  00000-0 -40514-4 0  9993,2 52851  53.2165 177.2109 0003917  42.4367 317.6927 15.08840788 31770,6917.8780000000015,95.438,542.453,537.033,0.0
52851.0,STARLINK-3809,PAYLOAD,2023-01-08 03:38:12,15.08831914,0.0003896,53.2165,176.0211,43.0573,317.0724,-9.6573e-05,-1.826e-05,0.0,0 STARLINK-3809,1 52851U 22062X   23008.15153211 -.00001826  00000-0 -96573-4 0  9998,2 52851  53.2165 176.0211 0003896  43.0573 317.0724 15.08831914 31818,6917.905,95.438,542.465,537.075,0.0
52851.0,STARLINK-3809,PAYLOAD,2023-01-08 13:10:31,15.08829693,0.0003887,53.2162,174.2362,43.0031,317.1264,-2.9894e-05,-7.65e-06,0.0,0 STARLINK-3809,1 52851U 22062X   23008.54897322 -.00000765  00000-0 -29894-4 0  9992,2 52851  53.2162 174.2362 0003887  43.0031 317.1264 15.08829693 31384,6917.911999999998,95.438,542.466,537.0880000000002,0.0
52851.0,STARLINK-3809,PAYLOAD,2023-01-09 03:28:59,15.0883731,0.0003775,53.2169,171.5616,43.0135,317.1152,4.496100000000001e-05,4.27e-06,0.0,0 STARLINK-3809,1 52851U 22062X   23009.14512832  .00000427  00000-0  44961-4 0  9994,2 52851  53.2169 171.5616 0003775  43.0135 317.1152 15.08837310 31969,6917.889,95.438,542.365,537.1419999999998,0.0
52851.0,STARLINK-3809,PAYLOAD,2023-01-09 20:58:12,15.08862018,0.0004006,53.2169,168.2903,40.4556,319.6733,-3.3691999999999995e-05,-8.26e-06,0.0,0 STARLINK-3809,1 52851U 22062X   23009.87375512 -.00000826  00000-0 -33692-4 0  9990,2 52851  53.2169 168.2903 0004006  40.4556 319.6733 15.08862018 31580,6917.813,95.436,542.4490000000002,536.9069999999998,0.0
52851.0,STARLINK-3809,PAYLOAD,2023-01-10 09:41:18,15.08842461,0.0003999,53.2163,165.9116,43.8073,316.3236,0.00020849,3.031e-05,0.0,0 STARLINK-3809,1 52851U 22062X   23010.40368329  .00003031  00000-0  20849-3 0  9997,2 52851  53.2163 165.9116 0003999  43.8073 316.3236 15.08842461 32151,6917.873000000001,95.437,542.504,536.971,0.0
52851.0,STARLINK-3809,PAYLOAD,2023-01-10 12:52:05,15.08835808,0.0003736,53.217,165.3164,40.9296,319.1976,0.00013744,1.899e-05,0.0,0 STARLINK-3809,1 52851U 22062X   23010.53616925  .00001899  00000-0  13744-3 0  9995,2 52851  53.2170 165.3164 0003736  40.9296 319.1976 15.08835808 32171,6917.893,95.438,542.3430000000002,537.174,0.0
52851.0,STARLINK-3809,PAYLOAD,2023-01-11 12:42:53,15.08831016,0.0003784,53.2174,160.8557,43.4715,316.6575,-7.2376e-05,-1.441e-05,0.0,0 STARLINK-3809,1 52851U 22062X   23011.52978216 -.00001441  00000-0 -72376-4 0  9991,2 52851  53.2174 160.8557 0003784  43.4715 316.6575 15.08831016 32329,6917.908,95.438,542.391,537.155,0.0
52851.0,STARLINK-3809,PAYLOAD,2023-01-11 19:04:25,15.0883831,0.0003895,53.2173,159.6662,43.5716,316.5584,-5.4349e-05,-1.154e-05,0.0,0 STARLINK-3809,1 52851U 22062X   23011.79473787 -.00001154  00000-0 -54349-4 0  9994,2 52851  53.2173 159.6662 0003895  43.5716 316.5584 15.08838310 32363,6917.886,95.438,542.445,537.056,0.0
52851.0,STARLINK-3809,PAYLOAD,2023-01-12 18:55:12,15.08835107,0.0003846,53.216,155.20600000000005,49.5152,310.6175,0.00017341,2.472e-05,0.0,0 STARLINK-3809,1 52851U 22062X   23012.78833797  .00002472  00000-0  17341-3 0  9997,2 52851  53.2160 155.2060 0003846  49.5152 310.6175 15.08835107 32024,6917.895,95.438,542.4209999999998,537.1,0.0
52851.0,STARLINK-3809,PAYLOAD,2023-01-13 02:52:08,15.08833896,0.000361,53.2166,153.7179,53.0563,307.0759,0.00018683,2.686e-05,0.0,0 STARLINK-3809,1 52851U 22062X   23013.11954032  .00002686  00000-0  18683-3 0  9998,2 52851  53.2166 153.7179 0003610  53.0563 307.0759 15.08833896 32569,6917.899,95.438,542.261,537.2669999999998,0.0
52851.0,STARLINK-3809,PAYLOAD,2023-01-13 12:24:27,15.0884399,0.0003578,53.2168,151.9337,51.5493,308.582,5.4005e-05,5.71e-06,0.0,0 STARLINK-3809,1 52851U 22062X   23013.51697977  .00000571  00000-0  54005-4 0  9994,2 52851  53.2168 151.9337 0003578  51.5493 308.5820 15.08843990 32139,6917.868,95.437,542.2080000000001,537.258,0.0
